{
    "links": {
        "self": "http://www.neowsapp.com/rest/v1/neo/3556972?api_key=iIulBulltgU6a56xZRHN4H3l9WmuAYTsLGpBGhQ2"
    },
    "id": "3556972",
    "neo_reference_id": "3556972",
    "name": "(2011 CZ6)",
    "designation": "2011 CZ6",
    "nasa_jpl_url": "http://ssd.jpl.nasa.gov/sbdb.cgi?sstr=3556972",
    "absolute_magnitude_h": 25.7,
    "estimated_diameter": {
        "kilometers": {
            "estimated_diameter_min": 0.0192555078,
            "estimated_diameter_max": 0.0430566244
        },
        "meters": {
            "estimated_diameter_min": 19.2555078188,
            "estimated_diameter_max": 43.0566244241
        },
        "miles": {
            "estimated_diameter_min": 0.0119648141,
            "estimated_diameter_max": 0.0267541378
        },
        "feet": {
            "estimated_diameter_min": 63.1742402722,
            "estimated_diameter_max": 141.2618956756
        }
    },
    "is_potentially_hazardous_asteroid": false,
    "close_approach_data": [
        {
            "close_approach_date": "1977-01-03",
            "close_approach_date_full": "1977-Jan-03 21:03",
            "epoch_date_close_approach": 221173380000,
            "relative_velocity": {
                "kilometers_per_second": "16.299455383",
                "kilometers_per_hour": "58678.0393789282",
                "miles_per_hour": "36460.2517463123"
            },
            "miss_distance": {
                "astronomical": "0.3449036224",
                "lunar": "134.1675091136",
                "kilometers": "51596847.266324288",
                "miles": "32060794.2125116544"
            },
            "orbiting_body": "Earth"
        },
        {
            "close_approach_date": "2011-02-10",
            "close_approach_date_full": "2011-Feb-10 13:16",
            "epoch_date_close_approach": 1297343760000,
            "relative_velocity": {
                "kilometers_per_second": "6.0333844643",
                "kilometers_per_hour": "21720.1840714073",
                "miles_per_hour": "13496.0777081475"
            },
            "miss_distance": {
                "astronomical": "0.0276771953",
                "lunar": "10.7664289717",
                "kilometers": "4140449.464454011",
                "miles": "2572755.9969309118"
            },
            "orbiting_body": "Earth"
        }
    ],
    "orbital_data": {
        "orbit_id": "11",
        "orbit_determination_date": "2017-04-06 08:54:35",
        "first_observation_date": "2011-02-06",
        "last_observation_date": "2011-02-15",
        "data_arc_in_days": 9,
        "observations_used": 59,
        "orbit_uncertainty": "7",
        "minimum_orbit_intersection": ".0151686",
        "jupiter_tisserand_invariant": "3.942",
        "epoch_osculation": "2459000.5",
        "eccentricity": ".4427929374910121",
        "semi_major_axis": "1.802590664202948",
        "inclination": "1.45941287795201",
        "ascending_node_longitude": "339.9110231839527",
        "orbital_period": "883.9833866875905",
        "perihelion_distance": "1.00441624890665",
        "perihelion_argument": "172.5043301576048",
        "aphelion_distance": "2.600765079499246",
        "perihelion_time": "2459148.093656696134",
        "mean_anomaly": "299.8928563468734",
        "mean_motion": ".4072474725446712",
        "equinox": "J2000",
        "orbit_class": {
            "orbit_class_type": "APO",
            "orbit_class_description": "Near-Earth asteroid orbits which cross the Earth’s orbit similar to that of 1862 Apollo",
            "orbit_class_range": "a (semi-major axis) > 1.0 AU; q (perihelion) < 1.017 AU"
        }
    },
    "is_sentry_object": false
}